{
  "type": "FeatureCollection",
  "features": [
    {
      "type": "Feature",
      "properties": {
        "norad_id": 34446,
        "name": "COSMOS 2251 DEB",
        "group": "cosmos-2251-debris",
        "lat": 64.88130084136668,
        "lon": 69.59832488354765,
        "alt_km": 724.8339303657431,
        "timestamp": "2025-12-26T05:31:12.900863+00:00",
        "meta_object_name": "COSMOS 2251 DEB",
        "meta_object_id": "1993-036SP",
        "meta_epoch": "2025-12-24T21:43:11.582688",
        "meta_mean_motion": 14.49365513,
        "meta_eccentricity": 0.00505396,
        "meta_inclination": 74.0415,
        "meta_ra_of_asc_node": 34.4678,
        "meta_arg_of_pericenter": 169.5596,
        "meta_mean_anomaly": 190.6627,
        "meta_ephemeris_type": 0,
        "meta_classification_type": "U",
        "meta_norad_cat_id": 34446,
        "meta_element_set_no": 999,
        "meta_rev_at_epoch": 88870,
        "meta_bstar": 0.00011865833,
        "meta_mean_motion_dot": 4.32e-06,
        "meta_mean_motion_ddot": 0,
        "tle_line1": "1 34446U 93036SP  25358.90499517  .00000432  00000+0  11866-3 0  9992",
        "tle_line2": "2 34446  74.0415  34.4678 0050539 169.5596 190.6627 14.49365513888702"
      },
      "geometry": {
        "type": "Point",
        "coordinates": [
          69.59832488354765,
          64.88130084136668
        ]
      }
    },
    {
      "type": "Feature",
      "properties": {
        "norad_id": 34449,
        "name": "COSMOS 2251 DEB",
        "group": "cosmos-2251-debris",
        "lat": -68.94856447711729,
        "lon": -4.7321009592842085,
        "alt_km": 601.7672146288605,
        "timestamp": "2025-12-26T05:31:12.900873+00:00",
        "meta_object_name": "COSMOS 2251 DEB",
        "meta_object_id": "1993-036SS",
        "meta_epoch": "2025-12-25T14:21:40.147776",
        "meta_mean_motion": 14.95549777,
        "meta_eccentricity": 0.0022834,
        "meta_inclination": 74.032,
        "meta_ra_of_asc_node": 44.6102,
        "meta_arg_of_pericenter": 79.5091,
        "meta_mean_anomaly": 45.2516,
        "meta_ephemeris_type": 0,
        "meta_classification_type": "U",
        "meta_norad_cat_id": 34449,
        "meta_element_set_no": 999,
        "meta_rev_at_epoch": 88885,
        "meta_bstar": 0.0024501,
        "meta_mean_motion_dot": 0.00027385,
        "meta_mean_motion_ddot": 0,
        "tle_line1": "1 34449U 93036SS  25359.59838134  .00027385  00000+0  24501-2 0  9998",
        "tle_line2": "2 34449  74.0320  44.6102 0022834  79.5091  45.2516 14.95549777888857"
      },
      "geometry": {
        "type": "Point",
        "coordinates": [
          -4.7321009592842085,
          -68.94856447711729
        ]
      }
    },
    {
      "type": "Feature",
      "properties": {
        "norad_id": 34451,
        "name": "COSMOS 2251 DEB",
        "group": "cosmos-2251-debris",
        "lat": -65.1155335747233,
        "lon": 22.562998908864703,
        "alt_km": 598.3635027544251,
        "timestamp": "2025-12-26T05:31:12.900883+00:00",
        "meta_object_name": "COSMOS 2251 DEB",
        "meta_object_id": "1993-036SU",
        "meta_epoch": "2025-12-25T10:34:49.236096",
        "meta_mean_motion": 14.96279673,
        "meta_eccentricity": 0.0023839,
        "meta_inclination": 74.0458,
        "meta_ra_of_asc_node": 62.2341,
        "meta_arg_of_pericenter": 74.2453,
        "meta_mean_anomaly": 286.1359,
        "meta_ephemeris_type": 0,
        "meta_classification_type": "U",
        "meta_norad_cat_id": 34451,
        "meta_element_set_no": 999,
        "meta_rev_at_epoch": 88825,
        "meta_bstar": 0.002646,
        "meta_mean_motion_dot": 0.00030161,
        "meta_mean_motion_ddot": 0,
        "tle_line1": "1 34451U 93036SU  25359.44084764  .00030161  00000+0  26460-2 0  9999",
        "tle_line2": "2 34451  74.0458  62.2341 0023839  74.2453 286.1359 14.96279673888254"
      },
      "geometry": {
        "type": "Point",
        "coordinates": [
          22.562998908864703,
          -65.1155335747233
        ]
      }
    },
    {
      "type": "Feature",
      "properties": {
        "norad_id": 34452,
        "name": "COSMOS 2251 DEB",
        "group": "cosmos-2251-debris",
        "lat": 65.46522378748094,
        "lon": -166.25767274792838,
        "alt_km": 563.8592084559405,
        "timestamp": "2025-12-26T05:31:12.900893+00:00",
        "meta_object_name": "COSMOS 2251 DEB",
        "meta_object_id": "1993-036SV",
        "meta_epoch": "2025-12-25T13:51:10.621728",
        "meta_mean_motion": 15.12041887,
        "meta_eccentricity": 0.0064075,
        "meta_inclination": 74.032,
        "meta_ra_of_asc_node": 156.2423,
        "meta_arg_of_pericenter": 229.6968,
        "meta_mean_anomaly": 249.8186,
        "meta_ephemeris_type": 0,
        "meta_classification_type": "U",
        "meta_norad_cat_id": 34452,
        "meta_element_set_no": 999,
        "meta_rev_at_epoch": 90856,
        "meta_bstar": 0.0010223,
        "meta_mean_motion_dot": 0.00018478,
        "meta_mean_motion_ddot": 0,
        "tle_line1": "1 34452U 93036SV  25359.57720627  .00018478  00000+0  10223-2 0  9996",
        "tle_line2": "2 34452  74.0320 156.2423 0064075 229.6968 249.8186 15.12041887908566"
      },
      "geometry": {
        "type": "Point",
        "coordinates": [
          -166.25767274792838,
          65.46522378748094
        ]
      }
    },
    {
      "type": "Feature",
      "properties": {
        "norad_id": 34454,
        "name": "COSMOS 2251 DEB",
        "group": "cosmos-2251-debris",
        "lat": 17.6060528833901,
        "lon": 67.59019913182377,
        "alt_km": 784.8938728864596,
        "timestamp": "2025-12-26T05:31:12.900903+00:00",
        "meta_object_name": "COSMOS 2251 DEB",
        "meta_object_id": "1993-036SX",
        "meta_epoch": "2025-12-24T19:23:44.422656",
        "meta_mean_motion": 14.38826373,
        "meta_eccentricity": 0.00359643,
        "meta_inclination": 74.0584,
        "meta_ra_of_asc_node": 255.4119,
        "meta_arg_of_pericenter": 315.5668,
        "meta_mean_anomaly": 44.2602,
        "meta_ephemeris_type": 0,
        "meta_classification_type": "U",
        "meta_norad_cat_id": 34454,
        "meta_element_set_no": 999,
        "meta_rev_at_epoch": 88241,
        "meta_bstar": 0.00020848352,
        "meta_mean_motion_dot": 6.2e-06,
        "meta_mean_motion_ddot": 0,
        "tle_line1": "1 34454U 93036SX  25358.80815304  .00000620  00000+0  20848-3 0  9995",
        "tle_line2": "2 34454  74.0584 255.4119 0035964 315.5668  44.2602 14.38826373882414"
      },
      "geometry": {
        "type": "Point",
        "coordinates": [
          67.59019913182377,
          17.6060528833901
        ]
      }
    },
    {
      "type": "Feature",
      "properties": {
        "norad_id": 34459,
        "name": "COSMOS 2251 DEB",
        "group": "cosmos-2251-debris",
        "lat": 70.273897136141,
        "lon": -2.0261478368160413,
        "alt_km": 1019.1512764796244,
        "timestamp": "2025-12-26T05:31:12.900913+00:00",
        "meta_object_name": "COSMOS 2251 DEB",
        "meta_object_id": "1993-036TC",
        "meta_epoch": "2025-12-24T23:53:11.652000",
        "meta_mean_motion": 14.00517441,
        "meta_eccentricity": 0.01921323,
        "meta_inclination": 74.0779,
        "meta_ra_of_asc_node": 232.8663,
        "meta_arg_of_pericenter": 299.8727,
        "meta_mean_anomaly": 58.3436,
        "meta_ephemeris_type": 0,
        "meta_classification_type": "U",
        "meta_norad_cat_id": 34459,
        "meta_element_set_no": 999,
        "meta_rev_at_epoch": 85883,
        "meta_bstar": 0.00035903451,
        "meta_mean_motion_dot": 6e-06,
        "meta_mean_motion_ddot": 0,
        "tle_line1": "1 34459U 93036TC  25358.99527375  .00000600  00000+0  35903-3 0  9994",
        "tle_line2": "2 34459  74.0779 232.8663 0192132 299.8727  58.3436 14.00517441858831"
      },
      "geometry": {
        "type": "Point",
        "coordinates": [
          -2.0261478368160413,
          70.273897136141
        ]
      }
    },
    {
      "type": "Feature",
      "properties": {
        "norad_id": 34464,
        "name": "COSMOS 2251 DEB",
        "group": "cosmos-2251-debris",
        "lat": -50.5110509510697,
        "lon": 29.170351082382822,
        "alt_km": 482.9923984785537,
        "timestamp": "2025-12-26T05:31:12.900922+00:00",
        "meta_object_name": "COSMOS 2251 DEB",
        "meta_object_id": "1993-036TH",
        "meta_epoch": "2025-12-25T14:02:57.918048",
        "meta_mean_motion": 15.28880799,
        "meta_eccentricity": 0.0013807,
        "meta_inclination": 73.9888,
        "meta_ra_of_asc_node": 50.9383,
        "meta_arg_of_pericenter": 233.2192,
        "meta_mean_anomaly": 126.7744,
        "meta_ephemeris_type": 0,
        "meta_classification_type": "U",
        "meta_norad_cat_id": 34464,
        "meta_element_set_no": 999,
        "meta_rev_at_epoch": 90036,
        "meta_bstar": 0.0025579,
        "meta_mean_motion_dot": 0.00072662,
        "meta_mean_motion_ddot": 0,
        "tle_line1": "1 34464U 93036TH  25359.58539257  .00072662  00000+0  25579-2 0  9992",
        "tle_line2": "2 34464  73.9888  50.9383 0013807 233.2192 126.7744 15.28880799900361"
      },
      "geometry": {
        "type": "Point",
        "coordinates": [
          29.170351082382822,
          -50.5110509510697
        ]
      }
    }
  ]
}